NORAD_CAT_ID,OBJECT_NAME,OBJECT_TYPE,EPOCH,MEAN_MOTION,ECCENTRICITY,INCLINATION,RA_OF_ASC_NODE,ARG_OF_PERICENTER,MEAN_ANOMALY,BSTAR,MEAN_MOTION_DOT,MEAN_MOTION_DDOT,TLE_LINE0,TLE_LINE1,TLE_LINE2,SEMIMAJOR_AXIS,PERIOD,APOGEE,PERIGEE,DECAYED
53776.0,STARLINK-4708,PAYLOAD,2024-05-07 19:27:03,15.08832457,0.0001618,53.219,50.9793,93.1081,267.0096,-2.7156e-05,-7.2e-06,0.0,0 STARLINK-4708,1 53776U 22111D   24128.81046121 -.00000720  00000-0 -27156-4 0  9991,2 53776  53.2190  50.9793 0001618  93.1081 267.0096 15.08832457 91532,6917.903,95.438,540.888,538.649,0.0
53776.0,STARLINK-4708,PAYLOAD,2024-05-07 22:37:50,15.08831518,0.000159,53.2189,50.3845,93.0212,267.0962,-3.4825e-05,-8.42e-06,0.0,0 STARLINK-4708,1 53776U 22111D   24128.94294257 -.00000842  00000-0 -34825-4 0  9996,2 53776  53.2189  50.3845 0001590  93.0212 267.0962 15.08831518 92648,6917.906,95.438,540.871,538.671,0.0
53776.0,STARLINK-4708,PAYLOAD,2024-05-08 11:20:55,15.08833942,0.0001565,53.219,48.0061,93.0188,267.0983,-2.472e-05,-6.81e-06,0.0,0 STARLINK-4708,1 53776U 22111D   24129.47286301 -.00000681  00000-0 -24720-4 0  9990,2 53776  53.2190  48.0061 0001565  93.0188 267.0983 15.08833942 92723,6917.899,95.438,540.847,538.681,0.0
53776.0,STARLINK-4708,PAYLOAD,2024-05-08 22:28:37,15.08835365,0.0001533,53.2186,45.9252,97.0213,263.0953,1.9556e-07,-2.85e-06,0.0,0 STARLINK-4708,1 53776U 22111D   24129.93654246 -.00000285  00000-0  19556-6 0  9990,2 53776  53.2186  45.9252 0001533  97.0213 263.0953 15.08835365 92795,6917.895,95.438,540.82,538.699,0.0
53776.0,STARLINK-4708,PAYLOAD,2024-05-09 03:14:46,15.08835858,0.0001522,53.2189,45.0329,95.6577,264.4589,4.2077e-06,-2.21e-06,0.0,0 STARLINK-4708,1 53776U 22111D   24130.13526284 -.00000221  00000-0  42077-5 0  9997,2 53776  53.2189  45.0329 0001522  95.6577 264.4589 15.08835858 91739,6917.893,95.438,540.811,538.705,0.0
53776.0,STARLINK-4708,PAYLOAD,2024-05-09 11:11:42,15.08838512,0.0001524,53.2191,43.5462,95.2889,264.8277,1.8238e-05,2e-08,0.0,0 STARLINK-4708,1 53776U 22111D   24130.46646144  .00000002  00000-0  18238-4 0  9998,2 53776  53.2191  43.5462 0001524  95.2889 264.8277 15.08838512 92871,6917.885,95.438,540.804,538.696,0.0
53776.0,STARLINK-4708,PAYLOAD,2024-05-09 22:19:24,15.08835453,0.0001451,53.2188,41.4639,93.4394,266.6764,6.8195e-05,7.97e-06,0.0,0 STARLINK-4708,1 53776U 22111D   24130.93014250  .00000797  00000-0  68195-4 0  9995,2 53776  53.2188  41.4639 0001451  93.4394 266.6764 15.08835453 92940,6917.894,95.438,540.763,538.756,0.0
53776.0,STARLINK-4708,PAYLOAD,2024-05-10 11:02:29,15.0884233,0.0001419,53.2187,39.0842,86.4293,273.6861,8.1808e-05,1.014e-05,0.0,0 STARLINK-4708,1 53776U 22111D   24131.46005823  .00001014  00000-0  81808-4 0  9999,2 53776  53.2187  39.0842 0001419  86.4293 273.6861 15.08842330 91938,6917.873,95.437,540.72,538.757,0.0
53776.0,STARLINK-4708,PAYLOAD,2024-05-10 22:10:11,15.08835523,0.000146,53.2191,37.0031,86.6302,273.4857,1.8039e-05,-1e-08,0.0,0 STARLINK-4708,1 53776U 22111D   24131.92374526 -.00000001  00000-0  18039-4 0  9991,2 53776  53.2191  37.0031 0001460  86.6302 273.4857 15.08835523 93098,6917.894,95.438,540.769,538.749,0.0
53776.0,STARLINK-4708,PAYLOAD,2024-05-11 10:53:15,15.0885391,0.0002003,53.2192,34.6247,87.1476,272.9746,0.00013613,1.88e-05,0.0,0 STARLINK-4708,1 53776U 22111D   24132.45365153  .00001880  00000-0  13613-3 0  9993,2 53776  53.2192  34.6247 0002003  87.1476 272.9746 15.08853910 92082,6917.838,95.437,541.089,538.317,0.0
53776.0,STARLINK-4708,PAYLOAD,2024-05-11 22:00:55,15.08873999,0.0001713,53.22,32.5427,85.1562,274.9626,8.0619e-05,9.96e-06,0.0,0 STARLINK-4708,1 53776U 22111D   24132.91731147  .00000996  00000-0  80619-4 0  9992,2 53776  53.2200  32.5427 0001713  85.1562 274.9626 15.08873999 93247,6917.776,95.435,540.826,538.456,0.0
53776.0,STARLINK-4708,PAYLOAD,2024-05-12 02:47:04,15.08870822,0.000145,53.2188,31.651,87.8906,272.2252,0.00020117,2.918e-05,0.0,0 STARLINK-4708,1 53776U 22111D   24133.11602717  .00002918  00000-0  20117-3 0  9997,2 53776  53.2188  31.6510 0001450  87.8906 272.2252 15.08870822 92184,6917.786,95.436,540.654,538.648,0.0
53776.0,STARLINK-4708,PAYLOAD,2024-05-12 10:44:01,15.08857502,0.0001581,53.2183,30.1648,85.3189,274.7984,7.402e-05,8.91e-06,0.0,0 STARLINK-4708,1 53776U 22111D   24133.44723635  .00000891  00000-0  74020-4 0  9997,2 53776  53.2183  30.1648 0001581  85.3189 274.7984 15.08857502 92231,6917.827,95.436,540.786,538.598,0.0
53776.0,STARLINK-4708,PAYLOAD,2024-05-12 21:51:47,15.08777601,0.0001423,53.2189,28.0844,97.9821,262.1333,-0.00089058,-0.00014409,0.0,0 STARLINK-4708,1 53776U 22111D   24133.91096679 -.00014409  00000-0 -89058-3 0  9998,2 53776  53.2189  28.0844 0001423  97.9821 262.1333 15.08777601 92306,6918.071,95.442,540.921,538.952,0.0
53776.0,STARLINK-4708,PAYLOAD,2024-05-12 23:27:10,15.08778696,0.0001434,53.2179,27.7854,107.2768,252.8381,-0.00081659,-0.00013239,0.0,0 STARLINK-4708,1 53776U 22111D   24133.97720852 -.00013239  00000-0 -81659-3 0  9990,2 53776  53.2179  27.7854 0001434 107.2768 252.8381 15.08778696 93405,6918.068,95.441,540.925,538.941,0.0
53776.0,STARLINK-4708,PAYLOAD,2024-05-13 02:37:56,15.0877374,0.0001509,53.2178,27.1899,109.1205,250.995,-0.0011793,-0.00018973,0.0,0 STARLINK-4708,1 53776U 22111D   24134.10968524 -.00018973  00000-0 -11793-2 0  9997,2 53776  53.2178  27.1899 0001509 109.1205 250.9950 15.08773740 92334,6918.083,95.442,540.992,538.904,0.0
53776.0,STARLINK-4708,PAYLOAD,2024-05-13 16:56:25,15.0881016,0.0001611,53.218,24.5132,112.117,247.9993,0.00010388,1.364e-05,0.0,0 STARLINK-4708,1 53776U 22111D   24134.70584639  .00001364  00000-0  10388-3 0  9998,2 53776  53.2180  24.5132 0001611 112.1170 247.9993 15.08810160 92428,6917.972,95.439,540.951,538.722,0.0
53776.0,STARLINK-4708,PAYLOAD,2024-05-14 02:28:44,15.08822328,0.0002458,53.2174,22.7291,105.429,254.6974,0.00026001,3.85e-05,0.0,0 STARLINK-4708,1 53776U 22111D   24135.10329086  .00003850  00000-0  26001-3 0  9997,2 53776  53.2174  22.7291 0002458 105.4290 254.6974 15.08822328 92484,6917.934,95.439,541.5,538.099,0.0
53776.0,STARLINK-4708,PAYLOAD,2024-05-14 23:08:45,15.08849678,0.000166,53.2162,18.8635,102.5957,257.5221,0.0010483,0.00016439,0.0,0 STARLINK-4708,1 53776U 22111D   24135.96441106  .00016439  00000-0  10483-2 0  9992,2 53776  53.2162  18.8635 0001660 102.5957 257.5221 15.08849678 93701,6917.851,95.437,540.864,538.567,0.0
53776.0,STARLINK-4708,PAYLOAD,2024-05-15 15:02:35,15.08868859,0.0001883,53.2151,15.8885,77.9944,282.126,0.00054826,8.455e-05,0.0,0 STARLINK-4708,1 53776U 22111D   24136.62679856  .00008455  00000-0  54826-3 0  9990,2 53776  53.2151  15.8885 0001883  77.9944 282.1260 15.08868859 93801,6917.792,95.436,540.96,538.355,0.0
53776.0,STARLINK-4708,PAYLOAD,2024-05-15 22:59:30,15.08864525,0.0001139,53.2173,14.4027,87.5571,272.5552,0.00040124,6.108e-05,0.0,0 STARLINK-4708,1 53776U 22111D   24136.95799241  .00006108  00000-0  40124-3 0  9996,2 53776  53.2173  14.4027 0001139  87.5571 272.5552 15.08864525 93853,6917.805,95.436,540.458,538.882,0.0
53776.0,STARLINK-4708,PAYLOAD,2024-05-16 08:31:48,15.08865161,0.000102,53.2169,12.619,82.1883,277.9225,0.00057147,8.825e-05,0.0,0 STARLINK-4708,1 53776U 22111D   24137.35542773  .00008825  00000-0  57147-3 0  9998,2 53776  53.2169  12.6190 0001020  82.1883 277.9225 15.08865161 93915,6917.803,95.436,540.374,538.963,0.0
53776.0,STARLINK-4708,PAYLOAD,2024-05-16 16:28:44,15.08839285,0.0001257,53.218,11.132,92.5918,267.5218,-0.00025073,-4.276e-05,0.0,0 STARLINK-4708,1 53776U 22111D   24137.68663144 -.00004276  00000-0 -25073-3 0  9991,2 53776  53.2180  11.1320 0001257  92.5918 267.5218 15.08839285 92872,6917.883,95.438,540.617,538.878,0.0
53776.0,STARLINK-4708,PAYLOAD,2024-05-17 08:22:36,15.08837292,0.0001306,53.2168,8.1602,98.0196,262.0944,9.3987e-05,1.208e-05,0.0,0 STARLINK-4708,1 53776U 22111D   24138.34903587  .00001208  00000-0  93987-4 0  9993,2 53776  53.2168   8.1602 0001306  98.0196 262.0944 15.08837292 94066,6917.889,95.438,540.657,538.85,0.0
53776.0,STARLINK-4708,PAYLOAD,2024-05-17 22:41:05,15.08844387,0.0001254,53.2171,5.4826,93.7407,266.3728,0.00053439,8.228e-05,0.0,0 STARLINK-4708,1 53776U 22111D   24138.94519682  .00008228  00000-0  53439-3 0  9994,2 53776  53.2171   5.4826 0001254  93.7407 266.3728 15.08844387 94157,6917.867,95.437,540.599,538.864,0.0
53776.0,STARLINK-4708,PAYLOAD,2024-05-18 00:16:28,15.08845285,0.0001271,53.2173,5.1852,93.1009,267.0129,0.0005575,8.597e-05,0.0,0 STARLINK-4708,1 53776U 22111D   24139.01143682  .00008597  00000-0  55750-3 0  9993,2 53776  53.2173   5.1852 0001271  93.1009 267.0129 15.08845285 93077,6917.864,95.437,540.608,538.85,0.0
53776.0,STARLINK-4708,PAYLOAD,2024-05-18 08:13:23,15.08854901,0.0001256,53.2178,3.6979,91.985,268.1286,0.00065639,0.00010178,0.0,0 STARLINK-4708,1 53776U 22111D   24139.34263368  .00010178  00000-0  65639-3 0  9998,2 53776  53.2178   3.6979 0001256  91.9850 268.1286 15.08854901 94216,6917.835,95.437,540.569,538.831,0.0
53776.0,STARLINK-4708,PAYLOAD,2024-05-18 20:56:28,15.08851071,0.0001338,53.2177,1.3192,92.3122,267.8024,0.00030004,4.492e-05,0.0,0 STARLINK-4708,1 53776U 22111D   24139.87255182  .00004492  00000-0  30004-3 0  9991,2 53776  53.2177   1.3192 0001338  92.3122 267.8024 15.08851071 94294,6917.847,95.437,540.637,538.786,0.0
53776.0,STARLINK-4708,PAYLOAD,2024-05-19 14:25:42,15.0884771,0.0001334,53.2168,358.0487,90.6988,269.4157,0.00012866,1.761e-05,0.0,0 STARLINK-4708,1 53776U 22111D   24140.60118966  .00001761  00000-0  12866-3 0  9994,2 53776  53.2168 358.0487 0001334  90.6988 269.4157 15.08847710 94403,6917.857,95.437,540.645,538.799,0.0
53776.0,STARLINK-4708,PAYLOAD,2024-05-19 20:47:15,15.08841803,0.0001227,53.2177,356.857,94.7071,265.4062,-2.1179e-05,-6.25e-06,0.0,0 STARLINK-4708,1 53776U 22111D   24140.86615182 -.00000625  00000-0 -21179-4 0  9992,2 53776  53.2177 356.8570 0001227  94.7071 265.4062 15.08841803 93352,6917.875,95.437,540.589,538.891,0.0
